{"fetched_at":"2026-05-10T02:47:42Z","count":17087,"tles":[{"name":"SITRO-AIS 42","line1":"1 61756U 24199X   26129.49203542  .00052150  00000+0  56100-3 0  9996","line2":"2 61756  97.2961   7.4673 0006742  74.0700 286.1301 15.63557995131747","category":"Other"},{"name":"COSMOS 2583","line1":"1 62904U 25026C   26128.73126605  .00001548  00000+0  13980-3 0  9996","line2":"2 62904  81.9933 114.7540 0009941 176.4333 183.6959 14.94887464 68301","category":"Other"},{"name":"SITRO-AIS 5 (KATYS)","line1":"1 57176U 23091L   26129.45718845  .00008759  00000+0  31731-3 0  9999","line2":"2 57176  97.5079 193.0117 0010439 233.1277 126.9006 15.28573847158423","category":"Other"},{"name":"TRITON-1","line1":"1 39427U 13066M   26129.53072706  .00001160  00000+0  14466-3 0  9992","line2":"2 39427  97.8264  40.2185 0090455   1.4549 358.6910 14.81533105668361","category":"Other"},{"name":"2024-092D","line1":"1 59776U 24092D   26129.33676005  .00014864  00000+0  43160-3 0  9990","line2":"2 59776  97.6521 260.8642 0006246 287.6201  72.4359 15.35582866109782","category":"Other"},{"name":"CUTE-1.7+APD II (CO-65)","line1":"1 32785U 08021C   26129.46358632  .00003511  00000+0  22557-3 0  9996","line2":"2 32785  97.8266 110.0941 0009832 150.1468 210.0322 15.09087619979357","category":"Other"},{"name":"LKW-1","line1":"1 43034U 17077A   26129.54786819  .00005910  00000+0  25057-3 0  9990","line2":"2 43034  97.1023 165.8375 0001466  89.1408 270.9998 15.23478099468819","category":"Other"},{"name":"SEDNA-1","line1":"1 60580U 24149DS  26129.49100867  .00005416  00000+0  37010-3 0  9993","line2":"2 60580  97.6633 210.1486 0010562 118.4899 241.7393 15.06525927 94566","category":"Other"},{"name":"COSMOS 2456 [GLONASS-M]","line1":"1 36111U 09070A   26128.17388148  .00000011  00000+0  00000+0 0  9997","line2":"2 36111  64.9894  72.3358 0005922 318.6806 200.6137  2.13103809127570","category":"GPS"},{"name":"DONGPO 10","line1":"1 54689U 22167H   26129.52058604  .00008436  00000+0  26159-3 0  9996","line2":"2 54689  97.6924 298.0548 0003974 242.5454 117.5383 15.33677766189430","category":"Other"},{"name":"KINEIS-4A","line1":"1 63303U 25056D   26129.56239053  .00001358  00000+0  22236-3 0  9990","line2":"2 63303  97.9059 254.6523 0002807  73.9230 286.2286 14.72333011 61448","category":"Other"},{"name":"CENTISPACE-1 S1","line1":"1 43636U 18075A   26129.52331358  .00000366  00000+0  85371-4 0  9995","line2":"2 43636  97.8752 155.2229 0007324 236.9444 123.1054 14.59952536404919","category":"Other"},{"name":"ARCSAT-1","line1":"1 52161U 22033E   26129.21009649  .00010554  00000+0  17285-3 0  9996","line2":"2 52161  97.2730 220.9368 0004208   0.9876 359.1384 15.52661617229656","category":"Other"},{"name":"RANGE-A","line1":"1 43773U 18099R   26129.36158701  .00003126  00000+0  18017-3 0  9993","line2":"2 43773  97.3999 173.0806 0012003 118.3926 241.8517 15.13051283406628","category":"Other"},{"name":"CSC-2","line1":"1 58021U 23155F   26129.46184057  .00007021  00000+0  31857-3 0  9993","line2":"2 58021  97.5427 206.0488 0005105  29.0498 331.1021 15.21118141142297","category":"Other"},{"name":"OPS 7613 (P/L 4)","line1":"1 04237U 69082E   26105.13612794 -.00000016  00000+0  26876-4 0  9998","line2":"2 04237  70.0146 238.5795 0022136 218.0887 315.4148 13.95985985877508","category":"Other"},{"name":"FENGYUN 1D","line1":"1 27431U 02024B   26105.14448025  .00000069  00000+0  64178-4 0  9991","line2":"2 27431  98.9585 155.7439 0016274  62.5577 297.7246 14.10216023230595","category":"Weather"},{"name":"SCISAT 1","line1":"1 27858U 03036A   26129.46307093  .00000498  00000+0  68281-4 0  9993","line2":"2 27858  73.9302 248.2771 0008174 314.4870  45.5637 14.81406553225718","category":"Other"},{"name":"CARBONITE 1 (CBNT-1)","line1":"1 40718U 15032D   26129.53454338  .00001684  00000+0  21069-3 0  9995","line2":"2 40718  97.6505 309.2260 0015905  64.1482 296.1371 14.83471152583619","category":"Other"},{"name":"CENTISPACE-2 S8","line1":"1 68357U 26060H   26129.55998733  .00000787  00000+0  14920-3 0  9992","line2":"2 68357  54.9847 193.3908 0013744  56.4189 303.8120 14.74284975  7075","category":"Other"},{"name":"COSMOS 2508 (RODNIK-S *)","line1":"1 40921U 15050B   26129.54950806 -.00000036  00000+0 -33167-3 0  9997","line2":"2 40921  82.4844 102.2458 0015381 105.2967 254.9814 12.42912620482048","category":"Other"},{"name":"GONETS-M 16","line1":"1 44907U 19096C   26129.54582524 -.00000098  00000+0 -77675-3 0  9997","line2":"2 44907  82.5167 108.0232 0010011 308.1112  51.9065 12.42890196288837","category":"Other"},{"name":"HOTSAT-1","line1":"1 56954U 23084Y   23362.48072942  .00006094  00000+0  32791-3 0  9991","line2":"2 56954  97.5294 116.6536 0011420 249.0815 110.9195 15.15161566 30053","category":"Other"},{"name":"CENTISPACE-1 S3","line1":"1 53757U 22108A   26129.49275617  .00000280  00000+0  94453-4 0  9999","line2":"2 53757  53.5326 215.2584 0008338 236.1796 123.8386 14.61216805195871","category":"Other"},{"name":"BIFROST-DNK","line1":"1 64588U 25135BN  26129.50923333  .00001738  00000+0  16643-3 0  9996","line2":"2 64588  97.7692 244.5728 0005533 112.9109 247.2696 14.94456383 48133","category":"Other"},{"name":"SITRO-AIS 22","line1":"1 61740U 24199F   26129.50459737  .00002369  00000+0  21719-3 0  9995","line2":"2 61740  97.3276 330.0275 0012368 185.4740 174.6349 14.95722288126138","category":"Other"},{"name":"TURKSAT-3USAT","line1":"1 39152U 13018C   26105.15034933  .00001206  00000+0  11258-3 0  9993","line2":"2 39152  97.7915 196.2659 0010828 315.8216  44.2140 14.96037102701661","category":"Other"},{"name":"MOHAMMED VI-A","line1":"1 43005U 17070A   26129.53031484  .00000478  00000+0  74834-4 0  9993","line2":"2 43005  97.9561 202.3902 0001303 103.0639 257.0716 14.77088609458272","category":"Other"},{"name":"SKIF-D","line1":"1 54153U 22139D   26127.28584473  .00000036  00000+0  00000+0 0  9991","line2":"2 54153  89.9559  96.6802 0007360 215.1989 144.7889  5.00439105 62069","category":"Other"},{"name":"EINSTEIN PROBE","line1":"1 58753U 24007A   26129.35579471  .00001948  00000+0  13474-3 0  9995","line2":"2 58753  28.9980 105.9847 0009790 165.8504 194.2370 15.01700100127724","category":"Other"},{"name":"SHIJIAN-6 03B (SJ-6 03B)","line1":"1 33409U 08053B   26129.51830061  .00001505  00000+0  11264-3 0  9996","line2":"2 33409  97.8608 148.7692 0019580 166.9343 193.2394 15.04204710956938","category":"Other"},{"name":"2024-016A","line1":"1 58820U 24016A   26129.48749356  .00023519  00000+0  38282-3 0  9997","line2":"2 58820  97.4461 223.2884 0007323 183.0649 177.0560 15.52634799128065","category":"Other"},{"name":"SAUDISAT 4","line1":"1 40016U 14033G   26129.36611912  .00000600  00000+0  85941-4 0  9997","line2":"2 40016  97.7532 276.8562 0044415 197.9766 161.9877 14.79487066640332","category":"Other"},{"name":"TIANQI-26","line1":"1 59910U 24102B   26129.30671821 -.00000002  00000+0  86825-4 0  9996","line2":"2 59910  44.9732  74.5610 0009329  51.8739 308.2933 13.99168576 99465","category":"Other"},{"name":"DROID.002","line1":"1 63223U 25052P   26129.44294579  .00004764  00000+0  20663-3 0  9994","line2":"2 63223  97.3971  22.8821 0002046 274.5477  85.5525 15.22829961 63975","category":"Other"},{"name":"COSMOS 2530 (RODNIK-S *)","line1":"1 43751U 18097A   26129.49646536  .00000020  00000+0  74423-4 0  9993","line2":"2 43751  82.5142 246.2901 0020717 119.9248 240.3893 12.42880282337480","category":"Other"},{"name":"3CAT-5A","line1":"1 46292U 20061W   26105.16179593  .00007956  00000+0  17533-3 0  9995","line2":"2 46292  97.2466 168.2033 0001897  46.9624 313.1783 15.44193590311291","category":"Other"},{"name":"2025-180D","line1":"1 65262U 25180D   26126.59409620  .00004512  00000+0  24387-3 0  9997","line2":"2 65262  97.5206 254.2153 0015667 104.3852 255.9120 15.15091731 39360","category":"Other"},{"name":"FORMOSAT 7-3","line1":"1 44343U 19036E   26129.12137499  .00003733  00000+0  20594-3 0  9991","line2":"2 44343  23.9985  87.3467 0000921 152.3836 207.6717 15.09507119377332","category":"Other"},{"name":"SPACEMOBILE-004","line1":"1 61049U 24163E   26128.47375993  .00018302  00000+0  82845-3 0  9995","line2":"2 61049  52.9670 131.5639 0009183  30.1858 329.9663 15.20928072 91728","category":"Other"},{"name":"ZHUHAI-1 03B","line1":"1 44536U 19060C   26129.52204105  .00024282  00000+0  40423-3 0  9990","line2":"2 44536  97.5489 285.2795 0009990 100.9982 259.2394 15.51973532370320","category":"Other"},{"name":"GRUS-1C","line1":"1 47933U 21022B   26129.53741250  .00000632  00000+0  56916-4 0  9991","line2":"2 47933  97.5405  13.9190 0014273  90.3418 269.9440 14.98897845280112","category":"Other"},{"name":"NASBSAT-2","line1":"1 67285U 25313AP  26129.48108679  .00005575  00000+0  23813-3 0  9996","line2":"2 67285  97.3924 204.8716 0011718 132.6196 227.6031 15.23216820 20078","category":"Other"},{"name":"ELEVATION-1","line1":"1 62677U 25009BW  26129.48483668  .00020876  00000+0  52407-3 0  9994","line2":"2 62677  97.3835 214.2866 0004865 104.5916 255.5870 15.40018604130862","category":"Other"},{"name":"CHEOPS","line1":"1 44874U 19092B   26129.48309529  .00000230  00000+0  55301-4 0  9990","line2":"2 44874  98.1515 318.2918 0009728 215.2154 144.8405 14.61937861340241","category":"Other"},{"name":"LPNTSAT-001 (IOD-1)","line1":"1 68408U 26065A   26129.39393531  .00002004  00000+0  10019-3 0  9990","line2":"2 68408  97.4065  10.7193 0018262 135.2705 225.0005 15.18447516  6374","category":"Other"},{"name":"ICEYE-X52","line1":"1 64572U 25135AW  26129.54546265  .00001629  00000+0  16045-3 0  9993","line2":"2 64572  97.7697 244.2335 0003414  97.6030 262.5577 14.93421150 48119","category":"Other"},{"name":"SPIRIT","line1":"1 58468U 23185G   26129.54950089  .00089829  00000+0  63535-3 0  9990","line2":"2 58468  97.3297 212.2316 0003020 282.4954  77.5972 15.73728020136480","category":"Other"}]}